CCSDS_OMM_VERS = 2.0
CREATION_DATE  = 
ORIGINATOR     = 

OBJECT_NAME    = SL-14 R/B
OBJECT_ID      = 1986-046B
CENTER_NAME    = EARTH
REF_FRAME      = TEME
TIME_SYSTEM    = UTC
MEAN_ELEMENT_THEORY = SGP/SGP4

EPOCH          = 2025-12-20T04:35:43.044288
MEAN_MOTION    = 14.85492101
ECCENTRICITY   = .00243027
INCLINATION    = 82.4815
RA_OF_ASC_NODE = 155.2764
ARG_OF_PERICENTER = 128.5761
MEAN_ANOMALY   = 231.7638

EPHEMERIS_TYPE = 0
CLASSIFICATION_TYPE = U
NORAD_CAT_ID   = 16792
ELEMENT_SET_NO = 999
REV_AT_EPOCH   = 11460
BSTAR          = .43239331E-4
MEAN_MOTION_DOT = .4E-5
MEAN_MOTION_DDOT = 0

CCSDS_OMM_VERS = 2.0
CREATION_DATE  = 
ORIGINATOR     = 

OBJECT_NAME    = SL-14 R/B
OBJECT_ID      = 1986-055B
CENTER_NAME    = EARTH
REF_FRAME      = TEME
TIME_SYSTEM    = UTC
MEAN_ELEMENT_THEORY = SGP/SGP4

EPOCH          = 2025-12-19T20:14:11.529600
MEAN_MOTION    = 14.85537090
ECCENTRICITY   = .00176787
INCLINATION    = 82.5198
RA_OF_ASC_NODE = 201.6980
ARG_OF_PERICENTER = 233.9468
MEAN_ANOMALY   = 136.6350

EPHEMERIS_TYPE = 0
CLASSIFICATION_TYPE = U
NORAD_CAT_ID   = 16882
ELEMENT_SET_NO = 999
REV_AT_EPOCH   = 10751
BSTAR          = .37292988E-4
MEAN_MOTION_DOT = .347E-5
MEAN_MOTION_DDOT = 0

CCSDS_OMM_VERS = 2.0
CREATION_DATE  = 
ORIGINATOR     = 

OBJECT_NAME    = AJISAI (EGS)
OBJECT_ID      = 1986-061A
CENTER_NAME    = EARTH
REF_FRAME      = TEME
TIME_SYSTEM    = UTC
MEAN_ELEMENT_THEORY = SGP/SGP4

EPOCH          = 2025-12-20T05:10:44.236128
MEAN_MOTION    = 12.44514349
ECCENTRICITY   = .00113131
INCLINATION    = 50.0113
RA_OF_ASC_NODE = 337.7290
ARG_OF_PERICENTER = 84.6690
MEAN_ANOMALY   = 3.4712

EPHEMERIS_TYPE = 0
CLASSIFICATION_TYPE = U
NORAD_CAT_ID   = 16908
ELEMENT_SET_NO = 999
REV_AT_EPOCH   = 45810
BSTAR          = -.16987592E-4
MEAN_MOTION_DOT = -.1E-5
MEAN_MOTION_DDOT = 0

CCSDS_OMM_VERS = 2.0
CREATION_DATE  = 
ORIGINATOR     = 

OBJECT_NAME    = COSMOS 1812
OBJECT_ID      = 1987-003A
CENTER_NAME    = EARTH
REF_FRAME      = TEME
TIME_SYSTEM    = UTC
MEAN_ELEMENT_THEORY = SGP/SGP4

EPOCH          = 2025-12-20T05:19:00.923808
MEAN_MOTION    = 15.76962149
ECCENTRICITY   = .00067982
INCLINATION    = 82.4878
RA_OF_ASC_NODE = 283.9080
ARG_OF_PERICENTER = 75.7098
MEAN_ANOMALY   = 284.4922

EPHEMERIS_TYPE = 0
CLASSIFICATION_TYPE = U
NORAD_CAT_ID   = 17295
ELEMENT_SET_NO = 999
REV_AT_EPOCH   = 13183
BSTAR          = .51350235E-3
MEAN_MOTION_DOT = .83675E-3
MEAN_MOTION_DDOT = 0

CCSDS_OMM_VERS = 2.0
CREATION_DATE  = 
ORIGINATOR     = 

OBJECT_NAME    = SL-14 R/B
OBJECT_ID      = 1987-024B
CENTER_NAME    = EARTH
REF_FRAME      = TEME
TIME_SYSTEM    = UTC
MEAN_ELEMENT_THEORY = SGP/SGP4

EPOCH          = 2025-12-19T23:37:28.919136
MEAN_MOTION    = 14.86030692
ECCENTRICITY   = .00187208
INCLINATION    = 82.5276
RA_OF_ASC_NODE = 167.6487
ARG_OF_PERICENTER = 160.3498
MEAN_ANOMALY   = 199.8444

EPHEMERIS_TYPE = 0
CLASSIFICATION_TYPE = U
NORAD_CAT_ID   = 17567
ELEMENT_SET_NO = 999
REV_AT_EPOCH   = 7629
BSTAR          = .40688323E-4
MEAN_MOTION_DOT = .381E-5
MEAN_MOTION_DDOT = 0

CCSDS_OMM_VERS = 2.0
CREATION_DATE  = 
ORIGINATOR     = 

OBJECT_NAME    = COSMOS 1833
OBJECT_ID      = 1987-027A
CENTER_NAME    = EARTH
REF_FRAME      = TEME
TIME_SYSTEM    = UTC
MEAN_ELEMENT_THEORY = SGP/SGP4

EPOCH          = 2025-12-20T03:37:12.902592
MEAN_MOTION    = 14.13025055
ECCENTRICITY   = .00228447
INCLINATION    = 70.9149
RA_OF_ASC_NODE = 133.1975
ARG_OF_PERICENTER = 321.3675
MEAN_ANOMALY   = 38.5810

EPHEMERIS_TYPE = 0
CLASSIFICATION_TYPE = U
NORAD_CAT_ID   = 17589
ELEMENT_SET_NO = 999
REV_AT_EPOCH   = 99907
BSTAR          = .13375248E-3
MEAN_MOTION_DOT = .202E-5
MEAN_MOTION_DDOT = 0

CCSDS_OMM_VERS = 2.0
CREATION_DATE  = 
ORIGINATOR     = 

OBJECT_NAME    = SL-16 R/B
OBJECT_ID      = 1987-027B
CENTER_NAME    = EARTH
REF_FRAME      = TEME
TIME_SYSTEM    = UTC
MEAN_ELEMENT_THEORY = SGP/SGP4

EPOCH          = 2025-12-20T00:03:04.830336
MEAN_MOTION    = 14.17155059
ECCENTRICITY   = .00072645
INCLINATION    = 71.0038
RA_OF_ASC_NODE = 84.4154
ARG_OF_PERICENTER = 251.9177
MEAN_ANOMALY   = 108.1156

EPHEMERIS_TYPE = 0
CLASSIFICATION_TYPE = U
NORAD_CAT_ID   = 17590
ELEMENT_SET_NO = 999
REV_AT_EPOCH   = 405
BSTAR          = .12821971E-3
MEAN_MOTION_DOT = .211E-5
MEAN_MOTION_DDOT = 0

CCSDS_OMM_VERS = 2.0
CREATION_DATE  = 
ORIGINATOR     = 

OBJECT_NAME    = SL-14 R/B
OBJECT_ID      = 1987-038B
CENTER_NAME    = EARTH
REF_FRAME      = TEME
TIME_SYSTEM    = UTC
MEAN_ELEMENT_THEORY = SGP/SGP4

EPOCH          = 2025-12-20T01:45:15.052896
MEAN_MOTION    = 14.85267308
ECCENTRICITY   = .00208063
INCLINATION    = 82.5011
RA_OF_ASC_NODE = 11.7933
ARG_OF_PERICENTER = 69.6395
MEAN_ANOMALY   = 290.7054

EPHEMERIS_TYPE = 0
CLASSIFICATION_TYPE = U
NORAD_CAT_ID   = 17912
ELEMENT_SET_NO = 999
REV_AT_EPOCH   = 6741
BSTAR          = .36268695E-4
MEAN_MOTION_DOT = .337E-5
MEAN_MOTION_DDOT = 0

CCSDS_OMM_VERS = 2.0
CREATION_DATE  = 
ORIGINATOR     = 

OBJECT_NAME    = COSMOS 1844
OBJECT_ID      = 1987-041A
CENTER_NAME    = EARTH
REF_FRAME      = TEME
TIME_SYSTEM    = UTC
MEAN_ELEMENT_THEORY = SGP/SGP4

EPOCH          = 2025-12-19T23:41:31.602912
MEAN_MOTION    = 14.14527879
ECCENTRICITY   = .00298271
INCLINATION    = 70.8964
RA_OF_ASC_NODE = 202.2850
ARG_OF_PERICENTER = 145.6241
MEAN_ANOMALY   = 214.6819

EPHEMERIS_TYPE = 0
CLASSIFICATION_TYPE = U
NORAD_CAT_ID   = 17973
ELEMENT_SET_NO = 999
REV_AT_EPOCH   = 99231
BSTAR          = .13813956E-3
MEAN_MOTION_DOT = .218E-5
MEAN_MOTION_DDOT = 0

CCSDS_OMM_VERS = 2.0
CREATION_DATE  = 
ORIGINATOR     = 

OBJECT_NAME    = SL-14 R/B
OBJECT_ID      = 1987-055B
CENTER_NAME    = EARTH
REF_FRAME      = TEME
TIME_SYSTEM    = UTC
MEAN_ELEMENT_THEORY = SGP/SGP4

EPOCH          = 2025-12-20T04:45:40.850208
MEAN_MOTION    = 14.85528139
ECCENTRICITY   = .00191632
INCLINATION    = 82.4995
RA_OF_ASC_NODE = 63.9594
ARG_OF_PERICENTER = 276.8443
MEAN_ANOMALY   = 83.0593

EPHEMERIS_TYPE = 0
CLASSIFICATION_TYPE = U
NORAD_CAT_ID   = 18153
ELEMENT_SET_NO = 999
REV_AT_EPOCH   = 5813
BSTAR          = .38616447E-4
MEAN_MOTION_DOT = .358E-5
MEAN_MOTION_DDOT = 0

CCSDS_OMM_VERS = 2.0
CREATION_DATE  = 
ORIGINATOR     = 

OBJECT_NAME    = COSMOS 1867
OBJECT_ID      = 1987-060A
CENTER_NAME    = EARTH
REF_FRAME      = TEME
TIME_SYSTEM    = UTC
MEAN_ELEMENT_THEORY = SGP/SGP4

EPOCH          = 2025-12-20T05:13:43.179168
MEAN_MOTION    = 14.31487222
ECCENTRICITY   = .00136429
INCLINATION    = 65.0086
RA_OF_ASC_NODE = 169.2606
ARG_OF_PERICENTER = 271.8615
MEAN_ANOMALY   = 88.0907

EPHEMERIS_TYPE = 0
CLASSIFICATION_TYPE = U
NORAD_CAT_ID   = 18187
ELEMENT_SET_NO = 999
REV_AT_EPOCH   = 856
BSTAR          = .20039528E-4
MEAN_MOTION_DOT = -.47E-6
MEAN_MOTION_DDOT = 0

CCSDS_OMM_VERS = 2.0
CREATION_DATE  = 
ORIGINATOR     = 

OBJECT_NAME    = SL-14 R/B
OBJECT_ID      = 1988-001B
CENTER_NAME    = EARTH
REF_FRAME      = TEME
TIME_SYSTEM    = UTC
MEAN_ELEMENT_THEORY = SGP/SGP4

EPOCH          = 2025-12-20T01:17:25.561248
MEAN_MOTION    = 14.85430891
ECCENTRICITY   = .00190741
INCLINATION    = 82.5136
RA_OF_ASC_NODE = 270.2684
ARG_OF_PERICENTER = 137.9002
MEAN_ANOMALY   = 222.3683

EPHEMERIS_TYPE = 0
CLASSIFICATION_TYPE = U
NORAD_CAT_ID   = 18749
ELEMENT_SET_NO = 999
REV_AT_EPOCH   = 3020
BSTAR          = .39854045E-4
MEAN_MOTION_DOT = .369E-5
MEAN_MOTION_DDOT = 0

