SL-14 R/B               
1 16792U 86046B   25354.19147042  .00000400  00000+0  43239-4 0  9994
2 16792  82.4815 155.2764 0024302 128.5761 231.7638 14.85492101114603
SL-14 R/B               
1 16882U 86055B   25353.84318900  .00000347  00000+0  37293-4 0  9991
2 16882  82.5198 201.6980 0017678 233.9468 136.6350 14.85537090107510
AJISAI (EGS)            
1 16908U 86061A   25354.21578977 -.00000100  00000+0 -16988-4 0  9998
2 16908  50.0113 337.7290 0011313  84.6690   3.4712 12.44514349458101
COSMOS 1812             
1 17295U 87003A   25354.22153847  .00083675  00000+0  51350-3 0  9998
2 17295  82.4878 283.9080 0006798  75.7098 284.4922 15.76962149131836
SL-14 R/B               
1 17567U 87024B   25353.98436249  .00000381  00000+0  40688-4 0  9991
2 17567  82.5276 167.6487 0018720 160.3498 199.8444 14.86030692 76298
COSMOS 1833             
1 17589U 87027A   25354.15084378  .00000202  00000+0  13375-3 0  9994
2 17589  70.9149 133.1975 0022844 321.3675  38.5810 14.13025055999073
SL-16 R/B               
1 17590U 87027B   25354.00213924  .00000211  00000+0  12822-3 0  9997
2 17590  71.0038  84.4154 0007264 251.9177 108.1156 14.17155059  4059
SL-14 R/B               
1 17912U 87038B   25354.07309089  .00000337  00000+0  36269-4 0  9993
2 17912  82.5011  11.7933 0020806  69.6395 290.7054 14.85267308 67416
COSMOS 1844             
1 17973U 87041A   25353.98717133  .00000218  00000+0  13814-3 0  9994
2 17973  70.8964 202.2850 0029827 145.6241 214.6819 14.14527879992316
SL-14 R/B               
1 18153U 87055B   25354.19838947  .00000358  00000+0  38616-4 0  9994
2 18153  82.4995  63.9594 0019163 276.8443  83.0593 14.85528139 58138
COSMOS 1867             
1 18187U 87060A   25354.21786087 -.00000047  00000+0  20040-4 0  9995
2 18187  65.0086 169.2606 0013642 271.8615  88.0907 14.31487222  8563
SL-14 R/B               
1 18749U 88001B   25354.05376807  .00000369  00000+0  39854-4 0  9991
2 18749  82.5136 270.2684 0019074 137.9002 222.3683 14.85430891 30202
